{"type":"FeatureCollection","features":[{"type":"Feature","properties":{"kind":"road"},"geometry":{"type":"LineString","coordinates":[[-3.00604818885,59.0030695383],[-3.00608088584,59.00311379055],[-3.0061101693,59.00315342283],[-3.00611387594,59.00315843939],[-3.00614686613,59.00320308823],[-3.00617985641,59.00324773706],[-3.00620078964,59.0032760679],[-3.00621284677,59.00329238587],[-3.00624583722,59.00333703469],[-3.00627882776,59.0033816835],[-3.00629141063,59.0033987129],[-3.00631181839,59.00342633226],[-3.00634480909,59.00347098106],[-3.00637779989,59.00351562983],[-3.00638203226,59.00352135781],[-3.00641079075,59.00356027859],[-3.00644378172,59.00360492735],[-3.00647265455,59.00364400269],[-3.00647677279,59.00364957611],[-3.00650976392,59.00369422481],[-3.00654275515,59.00373887357],[-3.00656327748,59.0037666475],[-3.00657574645,59.00378352227],[-3.00660873782,59.00382817103],[-3.00664172935,59.00387281972],[-3.00665390107,59.00388929221],[-3.00667472089,59.00391746842],[-3.00670771256,59.00396211704],[-3.00674070429,59.00400676574],[-3.00674452533,59.00401193685],[-3.00677369609,59.00405141443],[-3.00680668802,59.00409606306],[-3.00683515019,59.00413458142],[-3.00683968002,59.00414071175],[-3.00687267209,59.00418536038],[-3.00690566429,59.00423000894],[-3.00692577572,59.00425722599],[-3.00693865649,59.00427465756],[-3.00697164889,59.00431930619],[-3.00700464129,59.00436395481],[-3.00701640191,59.00437987035],[-3.00703763383,59.00440860344],[-3.00707062643,59.00445325207],[-3.0071036191,59.00449790055],[-3.00710702871,59.00450251485],[-3.00713661183,59.00454254918],[-3.0071696047,59.00458719767],[-3.00719765617,59.00462515908],[-3.0072025977,59.00463184629],[-3.0072355907,59.00467649478],[-3.00726858383,59.00472114327],[-3.0072882843,59.00474780344],[-3.00730157697,59.0047657919],[-3.00733457024,59.00481044039],[-3.00736756364,59.00485508887],[-3.0073789131,59.00487044753],[-3.00740055717,59.00489973736],[-3.00743355071,59.00494438585],[-3.00746654424,59.00498903434],[-3.00746954256,59.00499309162],[-3.00749953804,59.00503368283],[-3.00753253184,59.00507833132],[-3.00756017256,59.00511573571],[-3.00756552565,59.00512297967],[-3.00759851971,59.00516762816],[-3.00763151378,59.00521227665],[-3.00765080336,59.00523837966],[-3.00766450785,59.005256925],[-3.00769750205,59.00530157349],[-3.00773049639,59.00534622184],[-3.00774143469,59.00536102361],[-3.00776349086,59.00539087032],[-3.00779648533,59.00543551868],[-3.00782947993,59.00548016703],[-3.00783206669,59.00548366757],[-3.00786247453,59.00552481538],[-3.00789546926,59.00556946373],[-3.00792269935,59.00560631138],[-3.00792846413,59.00561411208],[-3.007961459,59.00565876043],[-3.007994454,59.00570340878],[-3.00801333269,59.00572895492],[-3.00802744914,59.00574805713],[-3.00806044428,59.00579270549],[-3.00809343954,59.00583735384],[-3.00810396668,59.00585159874],[-3.00812643495,59.00588200191],[-3.00815943035,59.00592665027],[-3.00819242588,59.00597129862],[-3.00819460122,59.00597424228],[-3.00822542155,59.00601594697],[-3.00825841722,59.00606059504],[-3.00828523655,59.00609688582],[-3.00829141303,59.0061052434],[-3.00832440883,59.00614989175],[-3.0083574049,59.00619453982],[-3.00837587242,59.00621952908],[-3.00839040097,59.00623918817],[-3.00842339704,59.00628383625],[-3.00845639311,59.0063284846],[-3.00846650909,59.00634217262],[-3.00848938944,59.00637313268],[-3.00852238578,59.00641778103],[-3.00855538238,59.00646242911],[-3.00855714629,59.00646481589],[-3.00858837898,59.00650707718],[-3.00862137559,59.00655172553],[-3.00864778402,59.00658745915],[-3.00865437219,59.00659637361],[-3.00868736906,59.00664102169],[-3.00872036593,59.00668566976],[-3.00873842256,59.00671010214],[-3.00875336307,59.00673031812],[-3.00878635994,59.00677496619],[-3.00881935707,59.00681961427],[-3.00882906163,59.00683274541],[-3.00885235448,59.00686426235],[-3.00888535161,59.00690891042],[-3.00891834902,59.0069535585],[-3.0089197015,59.0069553884],[-3.00895134669,59.00699820658],[-3.00898434436,59.00704285465],[-3.0090103419,59.00707803139],[-3.00901734203,59.00708750273],[-3.0090503397,59.00713215081],[-3.00908333737,59.00717679888],[-3.0091009831,59.00720067411],[-3.00911633531,59.00722144696],[-3.00914933351,59.00726609476],[-3.00918233145,59.00731074284],[-3.00919162484,59.0073233171],[-3.00921532965,59.00735539091],[-3.00924832812,59.00740003899],[-3.00928132632,59.00744468679],[-3.00928226711,59.00744595982],[-3.0093143248,59.00748933487],[-3.00934732327,59.00753398267],[-3.00937291018,59.00756860253],[-3.009380322,59.00757863075],[-3.00941332074,59.00762327882],[-3.00944631948,59.00766792663],[-3.00946355405,59.00769124525],[-3.00947931822,59.0077125747],[-3.00951231722,59.00775722278],[-3.00954531623,59.00780187031],[-3.00955419819,59.00781388769],[-3.0095783155,59.00784651838],[-3.00961131477,59.00789116646],[-3.00964431404,59.00793581399],[-3.0096448434,59.00793653013],[-3.00967731331,59.00798046206],[-3.00971031285,59.00802510959],[-3.00977196526,59.00810852447],[-3.0098044213,59.00813954823],[-3.00984199589,59.00816899527],[-3.00988440302,59.00819664041],[-3.00993131957,59.00822227387],[-3.00998238908,59.00824570068],[-3.01003722226,59.00826674236],[-3.01009540209,59.00828523909],[-3.01015648592,59.00830104918],[-3.01022000843,59.00831405346],[-3.01028548642,59.00832415197],[-3.01035242174,59.00833126838],[-3.01042030452,59.00833534832],[-3.01048861874,59.00833636047],[-3.01055684358,59.00833429826],[-3.01062446062,59.00832917597],[-3.0106909549,59.00832103367],[-3.01075582002,59.00830993289],[-3.0108185629,59.00829595764],[-3.01082048342,59.008295476],[-3.01085982086,59.00828557465],[-3.01087371385,59.0082820774],[-3.01096012899,59.00826032617],[-3.01104393096,59.00823923232],[-3.01104654413,59.00823857439],[-3.01113295927,59.00821682315],[-3.01121937441,59.00819507137],[-3.01122804052,59.00819288999],[-3.01130578901,59.00817331959],[-3.01139220415,59.00815156781],[-3.01141214956,59.00814654711],[-3.01147861876,59.00812981603],[-3.01156503336,59.00810806424],[-3.01159625806,59.00810020423],[-3.01165144797,59.00808631246],[-3.01173786204,59.00806456013],[-3.01178036656,59.00805386135],[-3.01182427665,59.00804280835],[-3.01191069072,59.00802105602],[-3.01196447399,59.00800751793],[-3.01199710479,59.00799930369],[-3.01208351833,59.00797755191],[-3.01214858089,59.00796117395],[-3.0121699324,59.00795579957],[-3.01225634594,59.00793404724],[-3.01233268778,59.00791482997],[-3.01234275947,59.00791229491],[-3.01242917301,59.00789054203],[-3.01251558655,59.0078687897],[-3.01251679362,59.007868486],[-3.01260199955,59.00784703737],[-3.01268841309,59.00782528449],[-3.01270089891,59.00782214147],[-3.0127748261,59.00780353161],[-3.0128612391,59.00778177928],[-3.01288500421,59.0077757964],[-3.01294765157,59.0077600264],[-3.01303406457,59.00773827352],[-3.01306910897,59.00772945187],[-3.01312047705,59.00771652064],[-3.01320688952,59.00769476776],[-3.01325321267,59.00768310625],[-3.01329330199,59.0076730146],[-3.01337971392,59.00765126145],[-3.01343731637,59.0076367609],[-3.01346612639,59.00762950829],[-3.01355253833,59.00760775514],[-3.01362141953,59.007590415],[-3.01363895027,59.00758600198],[-3.01372536221,59.00756424855],[-3.01380552216,59.0075440691],[-3.01381177414,59.00754249512],[-3.01389818555,59.00752074169],[-3.01398459695,59.00749898826],[-3.01398962426,59.00749772265],[-3.01407100835,59.00747723483],[-3.01415741976,59.00745548113],[-3.01417372582,59.00745137621],[-3.01424383116,59.00743372742],[-3.01433024203,59.00741197372],[-3.01435782685,59.00740502921],[-3.0144166529,59.00739022002],[-3.01450306377,59.00736846604],[-3.01454192734,59.00735868221],[-3.01458947464,59.00734671233],[-3.01467588551,59.00732495835],[-3.01472602784,59.00731233494],[-3.01476229584,59.00730320438],[-3.01484870618,59.0072814504],[-3.01491012726,59.00726598739],[-3.01493511652,59.00725969614],[-3.01502152632,59.00723794189],[-3.01509422669,59.00721963957],[-3.01510793666,59.00721618764],[-3.01519434699,59.00719443338],[-3.01527832505,59.0071732912],[-3.01528075626,59.00717267913],[-3.0153671666,59.0071509246],[-3.01545357587,59.00712917035],[-3.01546242341,59.00712694283],[-3.01553998513,59.00710741582],[-3.01562639547,59.00708566129],[-3.01564652071,59.00708059419],[-3.01571280474,59.00706390649],[-3.01579921401,59.00704215196],[-3.015830618,59.00703424527],[-3.01588562221,59.00702039716],[-3.01597203148,59.00699864236],[-3.01601471422,59.00698789635],[-3.01605844075,59.00697688756],[-3.01614484895,59.00695513248],[-3.01619881045,59.00694154688],[-3.01623125822,59.0069333774],[-3.01631766642,59.0069116226],[-3.01638290668,59.00689519714],[-3.01640407462,59.00688986752],[-3.01649048282,59.00686811217],[-3.01656700077,59.00684884712],[-3.01657689102,59.00684635709],[-3.01666329923,59.00682460174],[-3.01674970743,59.00680284639],[-3.01675109593,59.00680249683],[-3.01683611563,59.00678109104],[-3.01692252383,59.00675933569],[-3.01693519002,59.00675614654],[-3.01700893096,59.00673758006],[-3.0170953381,59.00671582471],[-3.01711928411,59.0067097957],[-3.0171817463,59.00669406908],[-3.01726815344,59.00667231346],[-3.01730337713,59.00666344486],[-3.01735456057,59.00665055755],[-3.0174409677,59.00662880193],[-3.01753340697,59.00660552697],[-3.01759407724,59.00660184108],[-3.01763034471,59.00659963772],[-3.01768096997,59.00659656171],[-3.01776786377,59.00659128234],[-3.01785475651,59.00658600298],[-3.01794165031,59.00658072361],[-3.01802854305,59.00657544397],[-3.01811543685,59.00657016433],[-3.01820232959,59.00656488468],[-3.01828922339,59.00655960504],[-3.01837611612,59.0065543254],[-3.01846300886,59.00654904549],[-3.01847922901,59.00654805996],[-3.01854990266,59.00654376557],[-3.0186367954,59.00653848565],[-3.01872368813,59.00653320574],[-3.01881058087,59.00652792555],[-3.01889747467,59.00652264563],[-3.01898436741,59.00651736544],[-3.01907126014,59.00651208525],[-3.01915815288,59.00650680478],[-3.01924504562,59.00650152459],[-3.01932811011,59.00649647671],[-3.01933193835,59.00649624413],[-3.01941883215,59.00649096366],[-3.01950572489,59.0064856832],[-3.01959261762,59.00648040246],[-3.01967951036,59.00647512199],[-3.0197664031,59.00646984125],[-3.01985329583,59.00646456051],[-3.0199401875,59.00645927977],[-3.02002708024,59.00645399876],[-3.02011397297,59.00644871802],[-3.02017698907,59.00644488797],[-3.02020086571,59.00644343701],[-3.02028775844,59.00643815599],[-3.02037465118,59.0064328747],[-3.02046154285,59.00642759369],[-3.02054843558,59.0064223124],[-3.02063532832,59.00641703111],[-3.02072222105,59.00641174982],[-3.02080911272,59.00640646853],[-3.02089600546,59.00640118697],[-3.02098289712,59.00639590541],[-3.02102586483,59.00639329373],[-3.02106978986,59.00639062384],[-3.0211566826,59.00638534228],[-3.02124357426,59.00638006072],[-3.021330467,59.00637477888],[-3.02141735867,59.00636949704],[-3.0215042514,59.0063642152],[-3.02159114307,59.00635893336],[-3.02167803474,59.00635365125],[-3.02176492748,59.00634836941],[-3.02185181914,59.0063430873],[-3.02187473845,59.006341694],[-3.02193871188,59.00633780491],[-3.02202560355,59.0063325228],[-3.02211249522,59.00632724069],[-3.02219938688,59.0063219583],[-3.02228627962,59.00631667591],[-3.02237317129,59.00631139352],[-3.02246006296,59.00630611086],[-3.02254695463,59.00630082847],[-3.02263384629,59.00629554581],[-3.02272073796,59.00629026315],[-3.02272360888,59.00629008851],[-3.02280762963,59.00628498049],[-3.0228945213,59.00627969755],[-3.02298141297,59.00627441462],[-3.02306830464,59.00626913195],[-3.0231551963,59.00626384874],[-3.02324208797,59.00625856581],[-3.02332897964,59.00625328287],[-3.02341587131,59.00624799966],[-3.02350276298,59.00624271645],[-3.02357247717,59.00623847752],[-3.02358965465,59.00623743324],[-3.02367654631,59.00623214975],[-3.02376343798,59.00622686654],[-3.02385032858,59.00622158305],[-3.02393722025,59.00621629957],[-3.02402411085,59.00621101608],[-3.02411100252,59.00620573232],[-3.02419789419,59.00620044884],[-3.02428478586,59.00619516508],[-3.02437167753,59.00618988132],[-3.02442134332,59.00618686104],[-3.02445856919,59.00618459756],[-3.02454545873,59.00617931352],[-3.0246323504,59.00617402976],[-3.02471924206,59.00616874573],[-3.02480613373,59.00616346142],[-3.02489302327,59.00615817738],[-3.02497991494,59.00615289335],[-3.0250668066,59.00614760904],[-3.02515369614,59.00614232473],[-3.02524058781,59.00613704042],[-3.02527020628,59.00613523907],[-3.02532747947,59.00613175583],[-3.02541436901,59.00612647152],[-3.02550126068,59.00612118694],[-3.02558815234,59.00611590236],[-3.02567504188,59.00611061777],[-3.02576193355,59.00610533291],[-3.02584882521,59.00610004833],[-3.02593571475,59.00609476347],[-3.02602260642,59.00608947861],[-3.02610949595,59.00608419348],[-3.02619638762,59.00607890862],[-3.02628327715,59.00607362349],[-3.02637016882,59.00606833835],[-3.02645705835,59.00606305322],[-3.02654395002,59.00605776809],[-3.02663083956,59.00605248268],[-3.02680312233,59.00604200303],[-3.02680461649,59.00604175699],[-3.02685871567,59.00603284418],[-3.02689123921,59.00602748601],[-3.02697786193,59.00601321529],[-3.02706448465,59.00599894431],[-3.02714506884,59.00598566846],[-3.02715110737,59.00598467332],[-3.02723773009,59.00597040234],[-3.02732435281,59.00595613135],[-3.0274109734,59.00594186009],[-3.02743141987,59.00593849191],[-3.02749759612,59.00592758883],[-3.02758421884,59.00591331757],[-3.02767084156,59.00589904631],[-3.02771776878,59.00589131481],[-3.02775746214,59.00588477505],[-3.02784408486,59.00587050352],[-3.02793070758,59.00585623198],[-3.02800411768,59.00584413689],[-3.02801732817,59.00584196045],[-3.02810395089,59.00582768891],[-3.02819057147,59.00581341738],[-3.02827719419,59.00579914557],[-3.02829046658,59.00579695869],[-3.02836381478,59.00578487376],[-3.0284504375,59.00577060195],[-3.02853705808,59.00575633014],[-3.02857681548,59.00574977967],[-3.02862367867,59.00574205805],[-3.02871030139,59.00572778624],[-3.02879692197,59.00571351416],[-3.02886316225,59.0057026001],[-3.02888354256,59.00569924208],[-3.02897016314,59.00568496972],[-3.02905678586,59.00567069763],[-3.02914340645,59.00565642527],[-3.02914950902,59.00565541971],[-3.02923002703,59.00564215292],[-3.02931664762,59.00562788056],[-3.02940326821,59.00561360792],[-3.02943585365,59.00560823876],[-3.02948988879,59.00559933557],[-3.02957650938,59.00558506293],[-3.02966312996,59.0055707903],[-3.02972219828,59.00556105727],[-3.02974975055,59.00555651767],[-3.02983637113,59.00554224476],[-3.02992298958,59.00552797212],[-3.03000854291,59.00551387523],[-3.03000961017,59.00551369922],[-3.03009623075,59.00549942631],[-3.03018285134,59.00548515313],[-3.03026946979,59.00547088022],[-3.03029488541,59.00546669237],[-3.03035609038,59.00545660704],[-3.03044271096,59.00544233385],[-3.03052932941,59.00542806067],[-3.03058122791,59.00541950895],[-3.03061595,59.00541378749],[-3.03070256845,59.00539951403],[-3.03078918903,59.00538524085],[-3.03086757041,59.00537232499],[-3.03087580749,59.00537096725],[-3.03096242807,59.0053566938],[-3.03104904652,59.0053424202],[-3.03113566711,59.00532814661],[-3.03115391077,59.0053251402],[-3.03122228556,59.00531387288],[-3.03130890401,59.00529959915],[-3.03139552459,59.00528532541],[-3.03144025114,59.00527795501],[-3.03148214305,59.00527105155],[-3.0315687615,59.00525677768],[-3.03165537995,59.00524250367],[-3.03172658936,59.00523076898],[-3.0317419984,59.00522822966],[-3.03182861685,59.00521395552],[-3.0319152353,59.00519968138],[-3.03200185375,59.00518540723],[-3.03201292759,59.00518358241],[-3.0320884722,59.00517113295],[-3.03217509065,59.00515685867],[-3.0322617091,59.00514258425],[-3.03229926582,59.00513639529],[-3.03234832756,59.00512830984],[-3.03243494601,59.00511403542],[-3.03252156446,59.00509976086],[-3.03258560192,59.00508920748],[-3.03260818291,59.00508548631],[-3.03269479922,59.00507121161],[-3.03278141768,59.00505693692],[-3.03286803613,59.00504266209],[-3.03287193801,59.00504201899],[-3.03295465244,59.00502838726],[-3.03304127089,59.00501411243],[-3.03312788934,59.00499983746],[-3.03315827411,59.00499482981],[-3.03321450566,59.00498556236],[-3.03330112411,59.00497128739],[-3.03338774043,59.00495701229],[-3.03344460807,59.00494764008],[-3.03347435888,59.00494273704],[-3.0335609752,59.0049284618],[-3.03364759151,59.00491418656],[-3.03373094203,59.0049004498],[-3.03373420996,59.00489991118],[-3.03382082628,59.0048856358],[-3.0339074426,59.00487136029],[-3.03399406105,59.00485708477],[-3.03401727385,59.00485325883],[-3.03408067736,59.00484280912],[-3.03416729368,59.0048285336],[-3.03425391,59.00481425781],[-3.03430360568,59.00480606718],[-3.03434052631,59.00479998202],[-3.03442714263,59.00478570623],[-3.03451375895,59.00477143043],[-3.0345899375,59.00475887498],[-3.03460037526,59.00475715451],[-3.03468699158,59.00474287844],[-3.03477360789,59.00472860237],[-3.03486022421,59.00471432631],[-3.03487626719,59.00471168209],[-3.03494684053,59.00470005024],[-3.03503345684,59.0046857739],[-3.03512007316,59.0046714977],[-3.03516259689,59.00466448852],[-3.03520668734,59.00465722136],[-3.03529330366,59.00464294502],[-3.03537991997,59.00462866854],[-3.03544892658,59.0046172944],[-3.03546653629,59.00461439206],[-3.03555315047,59.00460011545],[-3.03563976679,59.00458583883],[-3.03572638097,59.00457156208],[-3.03573525413,59.00457009959],[-3.03581299729,59.00455728533],[-3.03589961147,59.00454300858],[-3.03598622779,59.00452873169],[-3.03602158169,59.00452290423],[-3.03607284197,59.0045144548],[-3.03615945828,59.00450017791],[-3.03624607247,59.00448590088],[-3.03630790925,59.00447570818],[-3.03633268665,59.00447162372],[-3.03641930296,59.00445734655],[-3.03650591715,59.00444306939],[-3.03659253133,59.00442879223],[-3.03659423467,59.00442851159],[-3.03667914551,59.00441451479],[-3.03676576183,59.00440023749],[-3.03685237601,59.00438596005],[-3.03688056009,59.00438131431],[-3.03693899019,59.00437168261],[-3.03702560437,59.00435740503],[-3.03711221855,59.00434312746],[-3.03716688338,59.00433411634],[-3.03719883274,59.00432884974],[-3.03728544692,59.00431457203],[-3.0373720611,59.00430029418],[-3.03745320667,59.00428691783],[-3.03745867528,59.00428601647],[-3.03754528946,59.00427173848],[-3.03763190151,59.00425746063],[-3.03771851569,59.0042431825],[-3.03773952995,59.00423971862],[-3.03780512988,59.00422890452],[-3.03789174406,59.00421462639],[-3.0379783561,59.0042003482],[-3.03811254426,59.0041782275],[-3.0381797899,59.00417196329],[-3.0382478381,59.00416874655],[-3.03831617233,59.0041686017],[-3.03838426963,59.00417152984],[-3.03845161345,59.00417750867],[-3.03851768937,59.00418649274],[-3.03858199791,59.00419841367],[-3.03864404814,59.00421318065],[-3.03870336833,59.00423068142],[-3.03875950384,59.00425078275],[-3.03881203201,59.00427333168],[-3.03886054945,59.00429815646],[-3.038904689,59.00432506843],[-3.03894411341,59.00435386262],[-3.03897852386,59.00438431975],[-3.0390076578,59.00441620835],[-3.03903129537,59.0044492854],[-3.03904925301,59.00448329937],[-3.03906139625,59.00451799145],[-3.03906763329,59.00455309748],[-3.03906791504,59.00458835028],[-3.03906223938,59.00462348158],[-3.03905065112,59.00465822404],[-3.03903323564,59.00469231325],[-3.03901012956,59.0047254897],[-3.03898150577,59.00475750105],[-3.03898127738,59.00475772951],[-3.03897028465,59.00476871524],[-3.03895347324,59.00478551964],[-3.0389249946,59.0048139839],[-3.03887970241,59.00485925256],[-3.03886897223,59.00486997619],[-3.03883441023,59.00490452109],[-3.03878911804,59.00494978975],[-3.03878447334,59.0049544326],[-3.03874382585,59.00499505827],[-3.03869997233,59.00503888902],[-3.03869853367,59.00504032693],[-3.03865324148,59.00508559546],[-3.03861547131,59.00512334543],[-3.0386079493,59.00513086398],[-3.03856265711,59.00517613251],[-3.0385309703,59.00520780184],[-3.03851736492,59.00522140103],[-3.0384720706,59.00526666956],[-3.03844646928,59.00529225812],[-3.03842677842,59.00531193794],[-3.03838148623,59.00535720647],[-3.03836196826,59.00537671439],[-3.03833619191,59.00540247499],[-3.03829089972,59.00544774338],[-3.03827746511,59.00546117053],[-3.0382456054,59.00549301177],[-3.03820031322,59.00553828015],[-3.03819296196,59.00554562667],[-3.0381550189,59.00558354854],[-3.03810972458,59.00562881693],[-3.03810845881,59.00563008254],[-3.03806443239,59.00567408531],[-3.03802395566,59.00571453868],[-3.03801913807,59.00571935343],[-3.03797384375,59.00576462181],[-3.03793945038,59.00579899454],[-3.03792854943,59.0058098902],[-3.03788325511,59.00585515859],[-3.03785494722,59.0058834504],[-3.03783796079,59.0059004267],[-3.03779266647,59.00594569509],[-3.03777044194,59.00596790627],[-3.03774737215,59.0059909632],[-3.03770207783,59.00603623159],[-3.03768593665,59.00605236213],[-3.03765678137,59.0060814997],[-3.03761148705,59.00612676781],[-3.03760143137,59.00613681772],[-3.03756619273,59.00617203593],[-3.03752089627,59.00621730431],[-3.03751692608,59.00622127359],[-3.03747560195,59.00626257242],[-3.03743241866,59.00630572917],[-3.0374303055,59.00630784054],[-3.03738501118,59.00635310865],[-3.03734791124,59.00639018476],[-3.03733971472,59.00639837676],[-3.03729441827,59.00644364487],[-3.03726340382,59.00647464008],[-3.03724912395,59.00648891271],[-3.03720382749,59.00653418083],[-3.03717889641,59.00655909567],[-3.03715853104,59.00657944894],[-3.03711323458,59.00662471705],[-3.03709438899,59.00664355098],[-3.03706793813,59.00666998489],[-3.03702264167,59.006715253],[-3.03700987943,59.0067280063],[-3.03697734522,59.00676052084],[-3.03693204876,59.00680578895],[-3.03692537201,59.00681246161],[-3.03688675017,59.00685105679],[-3.03684145372,59.00689632463],[-3.03684086246,59.00689691693],[-3.03679615726,59.00694159274],[-3.0367563529,59.00698137197],[-3.03675086081,59.00698686058],[-3.03670556222,59.00703212842],[-3.03667184121,59.00706582701],[-3.03666026576,59.00707739625],[-3.03661496717,59.00712266409],[-3.03658733166,59.00715028232],[-3.03656967072,59.00716793193],[-3.03652437213,59.00721319977],[-3.03650281997,59.00723473709],[-3.03647907354,59.00725846761],[-3.03643377495,59.00730373544],[-3.03641830828,59.00731919213],[-3.03638847849,59.00734900301],[-3.0363431799,59.00739427084],[-3.03633379659,59.00740364717],[-3.03629788131,59.00743953868],[-3.03625258272,59.00748480625],[-3.03624928491,59.00748810194],[-3.03620728414,59.00753007408],[-3.03616477108,59.0075725567],[-3.03616198555,59.00757534165],[-3.03611668696,59.00762060948],[-3.03608025939,59.00765701147],[-3.03607138623,59.00766587705],[-3.03602608764,59.00771114461],[-3.03599574557,59.00774146596],[-3.03598078905,59.00775641217],[-3.03593548833,59.00780167974],[-3.03591123175,59.007825921],[-3.03589018974,59.0078469473],[-3.03584489115,59.00789221486],[-3.03582671792,59.00791037549],[-3.03579959043,59.00793748243],[-3.0357542897,59.00798274999],[-3.03574220197,59.00799482998],[-3.03570899111,59.00802801756],[-3.03566369039,59.00807328512],[-3.03559003909,59.00814688376]]}}]}